NOAA 15                 
1 25338U 98030A   22335.53558107  .00000111  00000+0  64502-4 0  9993
2 25338  98.6286   2.7644 0010673 165.0909 195.0587 14.26202068276834
NOAA 18                 
1 28654U 05018A   22335.48777560  .00000182  00000+0  12205-3 0  9991
2 28654  98.9334  45.6567 0013805 216.0428 143.9814 14.12814724903563
NOAA 19                 
1 33591U 09005A   22335.57906498  .00000127  00000+0  93531-4 0  9992
2 33591  99.1292  13.0798 0014792  79.7797 280.5041 14.12644740711789
METOP-B                 
1 38771U 12049A   22335.60718024  .00000085  00000+0  58895-4 0  9996
2 38771  98.7089  32.9967 0000489 115.5093  44.8901 14.21480005529489
SARAL                   
1 39086U 13009A   22335.51908084  .00000068  00000+0  41370-4 0  9991
2 39086  98.5452 158.7060 0001869 113.7122 246.4258 14.32050263510394
METOP-C                 
1 43689U 18087A   22335.54212318  .00000081  00000+0  57230-4 0  9994
2 43689  98.7134  32.9686 0002117 273.1095  86.9840 14.21485973211043
ANGELS                  
1 44876U 19092D   22335.46559667  .00002977  00000+0  14578-3 0  9995
2 44876  97.4736 156.9002 0012865 131.8833 228.3501 15.18882260163584
GAZELLE                 
1 54023U 22127A   22335.43554131 -.00000042  00000+0  00000+0 0  9994
2 54023  98.3143 333.3737 0014278 129.6490 230.5966 14.41658089  7886
EOS-6 (OCEANSAT-3)      
1 54361U 22158A   22335.29187686 -.00000080  00000+0 -10354-4 0  9995
2 54361  98.3534  70.0099 0011119 214.8394 145.2068 14.45830941   726
